[{"OBJECT_NAME":"ZHEDA PIXING 1B","OBJECT_ID":"2010-047B","EPOCH":"2026-03-09T21:53:02.003136","MEAN_MOTION":14.90822357,"ECCENTRICITY":0.0017982,"INCLINATION":97.9405,"RA_OF_ASC_NODE":46.4307,"ARG_OF_PERICENTER":246.9995,"MEAN_ANOMALY":112.9326,"EPHEMERIS_TYPE":0,"CLASSIFICATION_TYPE":"U","NORAD_CAT_ID":37166,"ELEMENT_SET_NO":999,"REV_AT_EPOCH":83562,"BSTAR":0.00029479,"MEAN_MOTION_DOT":2.852e-5,"MEAN_MOTION_DDOT":0},{"OBJECT_NAME":"OBJECT C","OBJECT_ID":"2024-110C","EPOCH":"2026-03-09T23:43:55.665408","MEAN_MOTION":14.9795015,"ECCENTRICITY":0.00127752,"INCLINATION":97.5516,"RA_OF_ASC_NODE":147.5124,"ARG_OF_PERICENTER":117.9593,"MEAN_ANOMALY":242.2925,"EPHEMERIS_TYPE":0,"CLASSIFICATION_TYPE":"U","NORAD_CAT_ID":60014,"ELEMENT_SET_NO":999,"REV_AT_EPOCH":8695,"BSTAR":0.00013340044,"MEAN_MOTION_DOT":1.519e-5,"MEAN_MOTION_DDOT":0}]
